{"type":"FeatureCollection","features":[{"type":"Feature","properties":{"name":"Lower San Juan plan area"},"geometry":{"type":"Polygon","coordinates":[[[-110.90299,37.09055],[-110.90148,37.09313],[-110.89767,37.09389],[-110.89634,37.0948],[-110.89627,37.09802],[-110.89693,37.09973],[-110.89438,37.10059],[-110.89365,37.10168],[-110.89219,37.10137],[-110.8903,37.10352],[-110.88765,37.10521],[-110.8884,37.1062],[-110.88755,37.10823],[-110.88836,37.10974],[-110.88667,37.11175],[-110.88669,37.11266],[-110.88846,37.11469],[-110.89117,37.11569],[-110.89192,37.11738],[-110.89189,37.12066],[-110.89071,37.12416],[-110.89132,37.12708],[-110.89054,37.12875],[-110.89045,37.13133],[-110.88968,37.13224],[-110.89002,37.13311],[-110.8918,37.13372],[-110.88946,37.13499],[-110.89173,37.13971],[-110.89164,37.14144],[-110.89297,37.14282],[-110.89167,37.14362],[-110.89214,37.14526],[-110.89157,37.1471],[-110.88956,37.1493],[-110.88994,37.15163],[-110.89141,37.15323],[-110.88997,37.15394],[-110.88915,37.15588],[-110.88536,37.15993],[-110.88621,37.16131],[-110.8855,37.16241],[-110.88606,37.16413],[-110.88882,37.16663],[-110.89021,37.16644],[-110.89105,37.16701],[-110.89152,37.17071],[-110.89336,37.17249],[-110.89279,37.17508],[-110.89343,37.17642],[-110.89675,37.17849],[-110.90191,37.17948],[-110.89855,37.18225],[-110.89332,37.1834],[-110.89262,37.1849],[-110.89346,37.18656],[-110.89069,37.18807],[-110.89133,37.18962],[-110.88971,37.19154],[-110.88743,37.19188],[-110.88676,37.19406],[-110.88361,37.19483],[-110.88144,37.19643],[-110.88037,37.19835],[-110.87542,37.19914],[-110.87441,37.20009],[-110.87036,37.20104],[-110.86785,37.20526],[-110.86783,37.20873],[-110.86695,37.21062],[-110.86781,37.21172],[-110.86733,37.21257],[-110.86154,37.21328],[-110.86121,37.215],[-110.85954,37.21569],[-110.85723,37.21491],[-110.85698,37.21581],[-110.85499,37.21721],[-110.85028,37.21559],[-110.85053,37.21264],[-110.84749,37.21246],[-110.84512,37.214],[-110.84426,37.2131],[-110.84388,37.21056],[-110.84237,37.20985],[-110.842,37.20844],[-110.83844,37.20691],[-110.83718,37.20663],[-110.83303,37.20773],[-110.83075,37.20651],[-110.82689,37.20723],[-110.82686,37.20825],[-110.83002,37.21002],[-110.82699,37.21347],[-110.82413,37.21526],[-110.82406,37.21613],[-110.8225,37.21748],[-110.81986,37.21789],[-110.81465,37.22161],[-110.81028,37.22169],[-110.8084,37.22103],[-110.80691,37.22259],[-110.80516,37.22201],[-110.80234,37.22356],[-110.80338,37.22488],[-110.80323,37.2261],[-110.80193,37.22729],[-110.80314,37.22788],[-110.80264,37.23089],[-110.80316,37.23156],[-110.80043,37.23367],[-110.79967,37.23506],[-110.79916,37.23667],[-110.79957,37.2378],[-110.79872,37.23867],[-110.79798,37.24201],[-110.79863,37.24331],[-110.79713,37.24633],[-110.79727,37.2474],[-110.79583,37.24899],[-110.78934,37.25243],[-110.78811,37.25213],[-110.78568,37.24881],[-110.78325,37.2475],[-110.78132,37.24773],[-110.77758,37.24644],[-110.7763,37.24728],[-110.77268,37.24691],[-110.77063,37.24532],[-110.76824,37.24511],[-110.76752,37.24347],[-110.76443,37.24238],[-110.7589,37.24315],[-110.75401,37.24248],[-110.75117,37.24293],[-110.74845,37.24727],[-110.74691,37.24841],[-110.74373,37.24959],[-110.74064,37.25202],[-110.73867,37.25215],[-110.737,37.25387],[-110.73166,37.25583],[-110.72799,37.25835],[-110.72301,37.26789],[-110.72111,37.26816],[-110.71978,37.26951],[-110.7164,37.27122],[-110.7121,37.27552],[-110.70808,37.27723],[-110.70597,37.27939],[-110.6986,37.28262],[-110.69563,37.28672],[-110.69273,37.28895],[-110.69142,37.29144],[-110.68303,37.298],[-110.68106,37.29844],[-110.68142,37.30059],[-110.67874,37.30064],[-110.67635,37.30297],[-110.67065,37.30573],[-110.6675,37.30844],[-110.66304,37.31059],[-110.66113,37.31086],[-110.65927,37.3128],[-110.6576,37.31311],[-110.65643,37.3151],[-110.65492,37.31572],[-110.65498,37.31848],[-110.65003,37.3227],[-110.64681,37.32721],[-110.64496,37.32819],[-110.6441,37.3295],[-110.64478,37.33088],[-110.64351,37.33063],[-110.64035,37.33271],[-110.63814,37.33618],[-110.63617,37.33729],[-110.63667,37.33866],[-110.63618,37.33953],[-110.63073,37.33918],[-110.62524,37.34037],[-110.62385,37.34137],[-110.6101,37.34026],[-110.60792,37.33849],[-110.60749,37.3372],[-110.60521,37.33648],[-110.60386,37.33447],[-110.60113,37.33482],[-110.59904,37.33232],[-110.59177,37.32898],[-110.59198,37.32781],[-110.59009,37.32628],[-110.59133,37.324],[-110.58956,37.32381],[-110.58789,37.32244],[-110.58737,37.32163],[-110.58783,37.32054],[-110.58731,37.31814],[-110.58581,37.31848],[-110.58452,37.32046],[-110.58168,37.32193],[-110.57977,37.32076],[-110.57739,37.32069],[-110.57614,37.32247],[-110.56793,37.32846],[-110.56378,37.33302],[-110.56046,37.33545],[-110.5566,37.33484],[-110.55396,37.33315],[-110.55221,37.33422],[-110.55066,37.33409],[-110.54859,37.33502],[-110.54558,37.33486],[-110.54342,37.33392],[-110.54132,37.33414],[-110.53852,37.33199],[-110.53688,37.32854],[-110.5348,37.32895],[-110.53319,37.33104],[-110.53106,37.33009],[-110.5285,37.33201],[-110.52635,37.33217],[-110.52452,37.3336],[-110.52115,37.3341],[-110.51817,37.33789],[-110.51458,37.34001],[-110.51383,37.34349],[-110.50831,37.34593],[-110.50679,37.3487],[-110.50518,37.3496],[-110.50366,37.35208],[-110.5006,37.35347],[-110.49817,37.35547],[-110.49598,37.35567],[-110.49399,37.35502],[-110.49141,37.3575],[-110.48823,37.35848],[-110.48609,37.36065],[-110.48642,37.36235],[-110.4819,37.36624],[-110.48143,37.3674],[-110.48006,37.36631],[-110.47916,37.36435],[-110.47641,37.36398],[-110.47266,37.36772],[-110.47078,37.36881],[-110.47037,37.36974],[-110.47096,37.37076],[-110.4671,37.37136],[-110.464,37.37343],[-110.46388,37.37407],[-110.46642,37.37723],[-110.46439,37.37851],[-110.45856,37.38581],[-110.45599,37.38778],[-110.45594,37.39028],[-110.45263,37.39305],[-110.45261,37.39461],[-110.45454,37.39747],[-110.45388,37.39827],[-110.45373,37.40013],[-110.45234,37.40083],[-110.45195,37.40216],[-110.45043,37.40377],[-110.44934,37.4078],[-110.44959,37.41009],[-110.44553,37.41048],[-110.44571,37.41244],[-110.44065,37.41477],[-110.43955,37.41784],[-110.437,37.42207],[-110.43735,37.42283],[-110.43676,37.42452],[-110.4324,37.42742],[-110.43152,37.42974],[-110.42955,37.42994],[-110.42955,37.43302],[-110.42628,37.43329],[-110.42324,37.43558],[-110.42035,37.43932],[-110.41945,37.43925],[-110.41442,37.4431],[-110.41421,37.44456],[-110.41251,37.44439],[-110.41136,37.44502],[-110.40252,37.45159],[-110.39839,37.45624],[-110.3959,37.45777],[-110.39345,37.45811],[-110.38906,37.45617],[-110.38714,37.45645],[-110.38548,37.46012],[-110.38298,37.4628],[-110.38315,37.4644],[-110.38063,37.46829],[-110.38047,37.47006],[-110.37676,37.47273],[-110.37557,37.47555],[-110.37466,37.47642],[-110.37242,37.47656],[-110.37149,37.47735],[-110.36802,37.47775],[-110.36587,37.48105],[-110.36251,37.4836],[-110.35967,37.48323],[-110.35677,37.48144],[-110.354,37.481],[-110.35304,37.48022],[-110.35332,37.47947],[-110.35174,37.47857],[-110.34556,37.47882],[-110.34139,37.47627],[-110.33884,37.47396],[-110.33917,37.47054],[-110.33627,37.46798],[-110.33269,37.46604],[-110.33244,37.46421],[-110.33377,37.46211],[-110.33156,37.45946],[-110.33016,37.46151],[-110.32519,37.46498],[-110.32348,37.46418],[-110.32186,37.46452],[-110.31827,37.46324],[-110.31662,37.46326],[-110.31463,37.46193],[-110.31171,37.46172],[-110.3097,37.46319],[-110.30878,37.46479],[-110.30656,37.46384],[-110.30505,37.46449],[-110.30117,37.46712],[-110.29806,37.4721],[-110.29032,37.47876],[-110.29069,37.48024],[-110.29001,37.48425],[-110.28783,37.48471],[-110.28699,37.48583],[-110.28574,37.48904],[-110.28461,37.49024],[-110.28438,37.4934],[-110.28317,37.49369],[-110.28046,37.49265],[-110.27574,37.493],[-110.275,37.49248],[-110.27528,37.49046],[-110.27393,37.48864],[-110.27383,37.48716],[-110.27186,37.48586],[-110.26988,37.4867],[-110.26882,37.48632],[-110.26803,37.48539],[-110.26792,37.48312],[-110.26448,37.48045],[-110.26121,37.47936],[-110.25594,37.48064],[-110.25335,37.48058],[-110.25077,37.47911],[-110.24892,37.47673],[-110.24703,37.47583],[-110.24311,37.47555],[-110.23789,37.47632],[-110.23393,37.47421],[-110.23403,37.473],[-110.23131,37.47016],[-110.23123,37.46885],[-110.22773,37.46535],[-110.22653,37.46337],[-110.22398,37.46437],[-110.21812,37.46061],[-110.21631,37.46385],[-110.21225,37.46648],[-110.21286,37.46884],[-110.21046,37.47138],[-110.21086,37.47398],[-110.21013,37.47473],[-110.20844,37.47533],[-110.20669,37.47495],[-110.2032,37.47609],[-110.20093,37.47785],[-110.19762,37.47903],[-110.1987,37.4805],[-110.19836,37.48226],[-110.20155,37.48704],[-110.20175,37.48869],[-110.20118,37.48998],[-110.20231,37.49187],[-110.2018,37.49385],[-110.20011,37.49445],[-110.1991,37.49572],[-110.1989,37.49702],[-110.19733,37.49923],[-110.19725,37.50069],[-110.19461,37.50472],[-110.19309,37.50482],[-110.19114,37.50379],[-110.18826,37.50467],[-110.18622,37.50376],[-110.18017,37.50403],[-110.17721,37.50181],[-110.17406,37.50054],[-110.1709,37.50085],[-110.16897,37.50034],[-110.16831,37.50215],[-110.16647,37.50311],[-110.16498,37.50486],[-110.16416,37.50941],[-110.16263,37.51175],[-110.16102,37.51286],[-110.15725,37.51255],[-110.15565,37.51182],[-110.15492,37.5104],[-110.1531,37.51028],[-110.1514,37.50938],[-110.14941,37.50966],[-110.14662,37.5115],[-110.14172,37.51102],[-110.13912,37.51482],[-110.13396,37.51415],[-110.13211,37.51563],[-110.13066,37.51545],[-110.1303,37.51816],[-110.12796,37.51983],[-110.1261,37.52222],[-110.12224,37.52314],[-110.11709,37.52608],[-110.11534,37.52603],[-110.11413,37.52713],[-110.1098,37.52781],[-110.10422,37.52723],[-110.10079,37.52525],[-110.09646,37.52509],[-110.08939,37.52796],[-110.08681,37.52979],[-110.07726,37.53352],[-110.07574,37.54091],[-110.07444,37.5432],[-110.07091,37.54549],[-110.07067,37.54751],[-110.06982,37.54837],[-110.06687,37.54926],[-110.06431,37.54854],[-110.0612,37.54985],[-110.05454,37.54975],[-110.05345,37.55096],[-110.05198,37.55589],[-110.05116,37.55622],[-110.04097,37.55688],[-110.03805,37.55901],[-110.03474,37.56],[-110.03292,37.55982],[-110.03152,37.56066],[-110.0215,37.55584],[-110.01923,37.55344],[-110.01619,37.55299],[-110.01349,37.55503],[-110.00945,37.55694],[-110.00259,37.55776],[-109.99904,37.55614],[-109.99322,37.55193],[-109.99237,37.55052],[-109.98361,37.54637],[-109.97916,37.54261],[-109.97289,37.54021],[-109.97056,37.54089],[-109.96675,37.5403],[-109.96203,37.54128],[-109.94975,37.5407],[-109.9445,37.54144],[-109.94235,37.54083],[-109.94334,37.54281],[-109.94283,37.54592],[-109.94032,37.5479],[-109.93793,37.5519],[-109.93387,37.55256],[-109.93358,37.55501],[-109.93119,37.56099],[-109.9277,37.56412],[-109.9248,37.56847],[-109.92437,37.57013],[-109.9229,37.5714],[-109.92005,37.57589],[-109.91667,37.57931],[-109.91508,37.58225],[-109.9145,37.58846],[-109.91294,37.58965],[-109.91235,37.59135],[-109.90977,37.59344],[-109.90992,37.59838],[-109.90509,37.60183],[-109.901,37.60273],[-109.89914,37.6044],[-109.89778,37.60402],[-109.89596,37.60451],[-109.89213,37.6068],[-109.887,37.6086],[-109.88527,37.61116],[-109.88041,37.61223],[-109.87794,37.61438],[-109.87217,37.61626],[-109.86982,37.61882],[-109.86684,37.62024],[-109.86488,37.62227],[-109.86253,37.62354],[-109.86085,37.62573],[-109.85903,37.62561],[-109.85723,37.62636],[-109.85632,37.62806],[-109.85408,37.62843],[-109.85259,37.63014],[-109.84936,37.63178],[-109.84843,37.63296],[-109.84859,37.63355],[-109.85066,37.63436],[-109.85216,37.63603],[-109.85216,37.63957],[-109.85388,37.64137],[-109.85422,37.64382],[-109.85566,37.64428],[-109.85608,37.64506],[-109.8543,37.6467],[-109.85044,37.6473],[-109.84908,37.64694],[-109.84688,37.64848],[-109.848,37.65089],[-109.84129,37.65949],[-109.83735,37.6631],[-109.83396,37.66342],[-109.83166,37.66456],[-109.82821,37.66837],[-109.82092,37.67397],[-109.81771,37.67825],[-109.81509,37.68292],[-109.81495,37.686],[-109.81422,37.68689],[-109.81319,37.69164],[-109.81122,37.69271],[-109.8118,37.69596],[-109.80966,37.69863],[-109.81052,37.70168],[-109.81445,37.70497],[-109.81474,37.70687],[-109.81243,37.70918],[-109.80945,37.7083],[-109.80556,37.70913],[-109.80451,37.70979],[-109.80393,37.71111],[-109.80496,37.71234],[-109.80607,37.71633],[-109.80501,37.71976],[-109.80764,37.7207],[-109.80676,37.7221],[-109.80272,37.72367],[-109.79523,37.72475],[-109.79016,37.72298],[-109.78133,37.72448],[-109.77884,37.72616],[-109.7746,37.7278],[-109.77287,37.72943],[-109.76911,37.72933],[-109.76662,37.73037],[-109.76233,37.73461],[-109.76113,37.73703],[-109.75777,37.74059],[-109.75859,37.74233],[-109.76252,37.74568],[-109.76372,37.74988],[-109.76349,37.75214],[-109.76534,37.7539],[-109.76629,37.75754],[-109.77,37.76303],[-109.77117,37.76822],[-109.77295,37.7699],[-109.77314,37.77276],[-109.77254,37.77559],[-109.77652,37.77778],[-109.77516,37.78014],[-109.77591,37.78301],[-109.78267,37.78786],[-109.78623,37.78952],[-109.78738,37.79099],[-109.78696,37.79335],[-109.7775,37.8015],[-109.77476,37.80678],[-109.77218,37.80789],[-109.77115,37.81303],[-109.77304,37.81606],[-109.77599,37.81652],[-109.77773,37.81547],[-109.78047,37.81524],[-109.78082,37.81796],[-109.78266,37.81922],[-109.78147,37.82144],[-109.78166,37.82288],[-109.78998,37.83155],[-109.78448,37.83203],[-109.78171,37.83315],[-109.77359,37.83474],[-109.77261,37.83543],[-109.77161,37.83826],[-109.76573,37.84079],[-109.75741,37.84034],[-109.75277,37.84251],[-109.74864,37.8427],[-109.7469,37.84395],[-109.73821,37.84762],[-109.73618,37.84689],[-109.73144,37.84233],[-109.72968,37.84194],[-109.72746,37.8402],[-109.72942,37.83705],[-109.72942,37.83607],[-109.724,37.83033],[-109.72303,37.82808],[-109.72127,37.8262],[-109.7204,37.82333],[-109.71438,37.82404],[-109.71089,37.8224],[-109.70553,37.824],[-109.70428,37.82575],[-109.69929,37.82755],[-109.69848,37.82868],[-109.69198,37.82977],[-109.68959,37.82937],[-109.68847,37.82747],[-109.68692,37.82699],[-109.68294,37.827],[-109.68073,37.82899],[-109.67923,37.82809],[-109.6738,37.82878],[-109.66961,37.82595],[-109.66779,37.827],[-109.66531,37.83003],[-109.66393,37.82993],[-109.66275,37.82914],[-109.66012,37.83097],[-109.65504,37.83195],[-109.65057,37.82972],[-109.64684,37.83227],[-109.64403,37.83311],[-109.64252,37.83068],[-109.64166,37.83045],[-109.64179,37.82925],[-109.64003,37.82797],[-109.63925,37.8247],[-109.63527,37.82608],[-109.63277,37.82842],[-109.63002,37.82884],[-109.62795,37.83154],[-109.62598,37.83596],[-109.62378,37.83668],[-109.62351,37.83835],[-109.62447,37.84039],[-109.6242,37.8438],[-109.62345,37.84563],[-109.62247,37.84623],[-109.62116,37.84495],[-109.61753,37.84374],[-109.6151,37.84031],[-109.61519,37.83842],[-109.61369,37.83785],[-109.61388,37.83375],[-109.61229,37.83398],[-109.60783,37.83049],[-109.60479,37.83073],[-109.60262,37.83583],[-109.59999,37.83594],[-109.59257,37.83843],[-109.59076,37.83764],[-109.58722,37.83409],[-109.58459,37.83296],[-109.57897,37.83244],[-109.57684,37.83115],[-109.57082,37.83061],[-109.56756,37.834],[-109.56073,37.83593],[-109.55886,37.83558],[-109.55345,37.83156],[-109.54932,37.82981],[-109.54279,37.82979],[-109.53908,37.82577],[-109.53865,37.82373],[-109.53433,37.82286],[-109.52151,37.82468],[-109.51808,37.82663],[-109.51209,37.8272],[-109.50666,37.83084],[-109.50674,37.83343],[-109.50486,37.83515],[-109.50274,37.83604],[-109.49789,37.83598],[-109.49417,37.83803],[-109.49156,37.83796],[-109.48816,37.83937],[-109.47993,37.84011],[-109.47493,37.84133],[-109.47572,37.84433],[-109.47256,37.84654],[-109.47183,37.85278],[-109.47415,37.85983],[-109.47881,37.86068],[-109.49037,37.85729],[-109.49481,37.8567],[-109.49607,37.86139],[-109.49522,37.86306],[-109.49581,37.86598],[-109.49498,37.86839],[-109.49581,37.87033],[-109.49566,37.87214],[-109.49364,37.87459],[-109.4925,37.87441],[-109.48999,37.87564],[-109.48855,37.87831],[-109.4838,37.88253],[-109.47553,37.88511],[-109.47358,37.8874],[-109.47205,37.89124],[-109.4709,37.89217],[-109.46828,37.89706],[-109.47149,37.89766],[-109.47122,37.9],[-109.47268,37.90214],[-109.47287,37.90516],[-109.47084,37.90602],[-109.46369,37.91215],[-109.45194,37.918],[-109.44726,37.91939],[-109.43714,37.92488],[-109.43382,37.92526],[-109.43147,37.92416],[-109.4262,37.92601],[-109.40291,37.94021],[-109.40102,37.9437],[-109.39311,37.94652],[-109.39064,37.95005],[-109.3809,37.95593],[-109.37464,37.95286],[-109.36982,37.95546],[-109.36666,37.95644],[-109.36506,37.95627],[-109.36333,37.95724],[-109.35842,37.95483],[-109.35531,37.95504],[-109.35316,37.9529],[-109.34971,37.95312],[-109.34699,37.95441],[-109.34572,37.95605],[-109.34305,37.95676],[-109.34151,37.95791],[-109.33961,37.95787],[-109.33858,37.96165],[-109.33627,37.96344],[-109.33434,37.96351],[-109.33191,37.96515],[-109.32931,37.96537],[-109.32886,37.96679],[-109.32551,37.96803],[-109.31978,37.97339],[-109.31668,37.97476],[-109.31554,37.97683],[-109.31557,37.98025],[-109.31487,37.98239],[-109.31217,37.98134],[-109.30906,37.9813],[-109.30252,37.97678],[-109.29914,37.97183],[-109.2963,37.96968],[-109.29245,37.96911],[-109.28915,37.9659],[-109.28704,37.96562],[-109.28585,37.96364],[-109.28394,37.96319],[-109.28142,37.96131],[-109.27806,37.96058],[-109.27524,37.95711],[-109.27391,37.95361],[-109.27109,37.95205],[-109.27095,37.95122],[-109.27279,37.9471],[-109.27244,37.94253],[-109.27447,37.93848],[-109.27434,37.9349],[-109.27356,37.93313],[-109.27764,37.92672],[-109.27989,37.92561],[-109.27887,37.92419],[-109.2712,37.92414],[-109.26369,37.9275],[-109.26123,37.92969],[-109.25937,37.92939],[-109.25852,37.93064],[-109.25698,37.93064],[-109.25535,37.92889],[-109.25187,37.92678],[-109.25266,37.92538],[-109.25145,37.92205],[-109.25216,37.91907],[-109.24908,37.91863],[-109.24746,37.91746],[-109.24685,37.91496],[-109.24365,37.91231],[-109.24406,37.90878],[-109.24149,37.90702],[-109.23964,37.90386],[-109.23613,37.9057],[-109.23479,37.9058],[-109.23191,37.90408],[-109.23108,37.90248],[-109.2278,37.90159],[-109.22645,37.8988],[-109.22347,37.89925],[-109.22141,37.90076],[-109.21963,37.90428],[-109.21588,37.90365],[-109.21096,37.90049],[-109.21015,37.89838],[-109.20809,37.89694],[-109.20795,37.89553],[-109.20459,37.8905],[-109.20445,37.88742],[-109.19733,37.88582],[-109.19134,37.88327],[-109.17965,37.8822],[-109.17634,37.88307],[-109.1761,37.8802],[-109.17293,37.87905],[-109.17139,37.87696],[-109.17037,37.87663],[-109.16594,37.87713],[-109.16469,37.87823],[-109.16464,37.8811],[-109.15773,37.88097],[-109.15289,37.88146],[-109.14984,37.88279],[-109.14381,37.88263],[-109.14191,37.88512],[-109.13765,37.88588],[-109.13361,37.89029],[-109.13327,37.89304],[-109.13134,37.89372],[-109.12971,37.89646],[-109.12943,37.90114],[-109.12652,37.90341],[-109.1222,37.90542],[-109.12124,37.90663],[-109.12093,37.90849],[-109.10868,37.91222],[-109.10372,37.91644],[-109.09471,37.91691],[-109.09232,37.91621],[-109.08949,37.91737],[-109.08777,37.91932],[-109.08273,37.92134],[-109.07303,37.91892],[-109.06775,37.91864],[-109.06418,37.91967],[-109.06081,37.91752],[-109.05856,37.91793],[-109.05497,37.91975],[-109.05317,37.92284],[-109.05031,37.92178],[-109.04723,37.92171],[-109.04382,37.92497],[-109.04369,37.92936],[-109.04078,37.93023],[-109.03806,37.93202],[-109.03517,37.93093],[-109.03391,37.93186],[-109.03338,37.93537],[-109.0303,37.94084],[-109.03275,37.94552],[-109.03149,37.94947],[-109.03276,37.95319],[-109.03227,37.95464],[-109.02921,37.95631],[-109.02739,37.95472],[-109.02485,37.95379],[-109.02196,37.95387],[-109.021,37.95478],[-109.01733,37.95491],[-109.0136,37.95902],[-109.00531,37.96127],[-109.0036,37.96238],[-109.00221,37.96152],[-109.00282,37.9584],[-109.0009,37.95446],[-109.00084,37.94984],[-109.00245,37.94453],[-109.00117,37.94331],[-109.00107,37.9425],[-109.00301,37.93906],[-109.00284,37.9376],[-108.99987,37.93552],[-108.9987,37.93373],[-108.99713,37.93442],[-108.99432,37.93255],[-108.98856,37.92529],[-108.98925,37.9225],[-108.9886,37.92134],[-108.98465,37.92078],[-108.98168,37.91954],[-108.98145,37.91773],[-108.9832,37.91405],[-108.98299,37.9125],[-108.98195,37.91109],[-108.98013,37.91038],[-108.97799,37.91116],[-108.97523,37.90899],[-108.97154,37.90772],[-108.96983,37.90769],[-108.96135,37.91018],[-108.9603,37.91203],[-108.95955,37.91591],[-108.95755,37.91954],[-108.95553,37.92055],[-108.95275,37.92091],[-108.94671,37.92667],[-108.94317,37.92734],[-108.94044,37.93124],[-108.9374,37.9342],[-108.93618,37.93387],[-108.93206,37.92607],[-108.93057,37.92516],[-108.92659,37.92471],[-108.92181,37.92804],[-108.91626,37.93072],[-108.9134,37.93135],[-108.90926,37.93421],[-108.90821,37.9364],[-108.90693,37.93707],[-108.9048,37.93564],[-108.90335,37.93307],[-108.904,37.9307],[-108.90063,37.9274],[-108.90108,37.92577],[-108.89417,37.92356],[-108.88892,37.92449],[-108.88351,37.92455],[-108.87984,37.92561],[-108.87413,37.92766],[-108.87109,37.93116],[-108.86688,37.9318],[-108.86658,37.92683],[-108.86476,37.92545],[-108.86136,37.91925],[-108.86175,37.91535],[-108.85744,37.91206],[-108.85602,37.91217],[-108.85544,37.91343],[-108.85299,37.91362],[-108.85184,37.91604],[-108.84934,37.91811],[-108.84724,37.91839],[-108.84534,37.91741],[-108.84074,37.91703],[-108.83786,37.91575],[-108.83564,37.91597],[-108.83576,37.91181],[-108.83649,37.9106],[-108.83504,37.90978],[-108.83459,37.90824],[-108.83116,37.90735],[-108.83206,37.90627],[-108.83193,37.90553],[-108.83388,37.90366],[-108.83539,37.89893],[-108.83545,37.89665],[-108.83314,37.89156],[-108.83758,37.88645],[-108.83652,37.88487],[-108.83805,37.87937],[-108.83743,37.87814],[-108.83761,37.87515],[-108.83663,37.87127],[-108.83498,37.86882],[-108.83198,37.86663],[-108.8322,37.86551],[-108.82978,37.86237],[-108.8291,37.85991],[-108.82776,37.85881],[-108.828,37.85786],[-108.83206,37.856],[-108.83627,37.85247],[-108.8461,37.84737],[-108.84998,37.8419],[-108.85057,37.83775],[-108.8495,37.83436],[-108.85517,37.82726],[-108.85512,37.82481],[-108.85585,37.82297],[-108.85933,37.8216],[-108.86157,37.81935],[-108.8652,37.81717],[-108.87187,37.8163],[-108.87478,37.8138],[-108.87706,37.81351],[-108.87866,37.81413],[-108.88248,37.81048],[-108.88288,37.80343],[-108.88361,37.80108],[-108.88278,37.79548],[-108.8795,37.79272],[-108.87764,37.79213],[-108.87845,37.79182],[-108.87901,37.79006],[-108.88027,37.78871],[-108.88054,37.78371],[-108.87803,37.78023],[-108.87529,37.77847],[-108.87352,37.77824],[-108.86949,37.77426],[-108.86623,37.77471],[-108.86294,37.77669],[-108.86127,37.77664],[-108.85988,37.7761],[-108.8595,37.77447],[-108.85765,37.77314],[-108.8576,37.77185],[-108.85578,37.77028],[-108.84434,37.76656],[-108.84157,37.7669],[-108.83673,37.76539],[-108.83242,37.7663],[-108.83041,37.76584],[-108.82896,37.76706],[-108.82835,37.76644],[-108.82807,37.76289],[-108.82675,37.76121],[-108.82356,37.76117],[-108.81791,37.75709],[-108.81452,37.75811],[-108.81019,37.763],[-108.80694,37.76494],[-108.80258,37.76518],[-108.79913,37.7693],[-108.79876,37.77165],[-108.79562,37.77734],[-108.79052,37.77916],[-108.78893,37.78681],[-108.78731,37.7878],[-108.78525,37.78701],[-108.78291,37.78739],[-108.78099,37.78463],[-108.78216,37.78199],[-108.78162,37.78053],[-108.77603,37.77768],[-108.77513,37.77612],[-108.77512,37.77445],[-108.77366,37.77307],[-108.77274,37.77045],[-108.76883,37.76712],[-108.76811,37.76534],[-108.76406,37.76457],[-108.76177,37.76567],[-108.75751,37.76382],[-108.75732,37.76302],[-108.76384,37.75747],[-108.76555,37.75318],[-108.76621,37.74846],[-108.76966,37.74705],[-108.76971,37.74566],[-108.77086,37.74474],[-108.77125,37.74169],[-108.77304,37.73836],[-108.77201,37.73428],[-108.77173,37.7283],[-108.77298,37.72503],[-108.7749,37.72234],[-108.77506,37.72079],[-108.77264,37.7184],[-108.77318,37.71313],[-108.7711,37.70698],[-108.77198,37.70549],[-108.77308,37.6999],[-108.77166,37.69808],[-108.76926,37.69179],[-108.76737,37.68923],[-108.7674,37.68649],[-108.76273,37.68026],[-108.76188,37.67572],[-108.76032,37.67475],[-108.75602,37.67408],[-108.7508,37.67448],[-108.74904,37.6738],[-108.74817,37.67151],[-108.74893,37.66997],[-108.75382,37.66686],[-108.75535,37.66458],[-108.75883,37.6552],[-108.75721,37.64907],[-108.75922,37.64399],[-108.75822,37.63802],[-108.75561,37.63633],[-108.75544,37.63047],[-108.75394,37.62906],[-108.75354,37.62762],[-108.75032,37.62617],[-108.74666,37.62568],[-108.75002,37.62273],[-108.7523,37.61198],[-108.75079,37.61195],[-108.74746,37.61027],[-108.74492,37.60606],[-108.74281,37.60455],[-108.74006,37.6002],[-108.73739,37.59986],[-108.73381,37.59657],[-108.73182,37.5956],[-108.7258,37.59704],[-108.72274,37.59953],[-108.71963,37.59986],[-108.71974,37.60237],[-108.71915,37.60292],[-108.71742,37.60139],[-108.71612,37.5991],[-108.71295,37.59658],[-108.7084,37.59521],[-108.70485,37.59341],[-108.7034,37.5919],[-108.69938,37.59083],[-108.69279,37.58677],[-108.69108,37.5863],[-108.68529,37.5893],[-108.68199,37.59018],[-108.68012,37.59043],[-108.67715,37.58936],[-108.67374,37.58948],[-108.67285,37.59087],[-108.66324,37.59464],[-108.66014,37.59718],[-108.65882,37.59514],[-108.65529,37.59377],[-108.65418,37.59418],[-108.65234,37.59717],[-108.64609,37.59097],[-108.64407,37.58808],[-108.6402,37.58867],[-108.63892,37.58797],[-108.63678,37.58795],[-108.63497,37.58644],[-108.6335,37.58626],[-108.6252,37.5887],[-108.62446,37.59018],[-108.62349,37.59066],[-108.61764,37.59189],[-108.61584,37.59319],[-108.61436,37.59296],[-108.61211,37.59133],[-108.61296,37.59077],[-108.61319,37.58973],[-108.6123,37.58696],[-108.61149,37.58634],[-108.61264,37.58475],[-108.61249,37.58369],[-108.60733,37.58199],[-108.60911,37.57999],[-108.60897,37.57901],[-108.60715,37.57824],[-108.60708,37.57686],[-108.60143,37.5737],[-108.60265,37.57125],[-108.60434,37.5703],[-108.60637,37.56733],[-108.60776,37.56311],[-108.60928,37.5622],[-108.60919,37.56029],[-108.60695,37.55791],[-108.60321,37.557],[-108.60239,37.55588],[-108.60241,37.55486],[-108.59956,37.55464],[-108.59946,37.55291],[-108.59539,37.55307],[-108.59363,37.55201],[-108.59358,37.55138],[-108.59131,37.55111],[-108.59331,37.54442],[-108.59501,37.53519],[-108.59514,37.52824],[-108.59172,37.52204],[-108.58998,37.51708],[-108.58888,37.51621],[-108.58827,37.51466],[-108.58862,37.51348],[-108.58777,37.5114],[-108.59021,37.50893],[-108.59069,37.50644],[-108.58965,37.50382],[-108.58944,37.50123],[-108.58645,37.49816],[-108.58369,37.49682],[-108.58362,37.49602],[-108.58784,37.49378],[-108.58706,37.49152],[-108.58061,37.49267],[-108.57789,37.49081],[-108.57368,37.49215],[-108.5693,37.49536],[-108.56525,37.49638],[-108.56507,37.49431],[-108.56301,37.49282],[-108.55978,37.4925],[-108.55776,37.49085],[-108.55586,37.49196],[-108.55386,37.49152],[-108.55335,37.48991],[-108.55223,37.48891],[-108.55329,37.48695],[-108.55464,37.48651],[-108.55539,37.48542],[-108.55483,37.48324],[-108.55535,37.48146],[-108.55445,37.48003],[-108.54993,37.4808],[-108.54684,37.47965],[-108.54535,37.47289],[-108.54205,37.46722],[-108.54032,37.46587],[-108.53401,37.46547],[-108.52929,37.46231],[-108.52832,37.45985],[-108.52708,37.45937],[-108.52693,37.45725],[-108.52481,37.4558],[-108.5198,37.45632],[-108.51939,37.45747],[-108.51493,37.45901],[-108.51438,37.45972],[-108.51067,37.45967],[-108.50927,37.46077],[-108.50806,37.45706],[-108.505,37.4559],[-108.50149,37.45271],[-108.49623,37.45133],[-108.49502,37.45195],[-108.49182,37.45015],[-108.48982,37.45036],[-108.48892,37.44941],[-108.4888,37.44856],[-108.48476,37.44783],[-108.48084,37.44591],[-108.47943,37.44597],[-108.47733,37.44717],[-108.47602,37.44635],[-108.47569,37.44374],[-108.46914,37.44071],[-108.46752,37.44128],[-108.46528,37.44044],[-108.46481,37.43987],[-108.46563,37.43733],[-108.46362,37.43619],[-108.46098,37.43603],[-108.4588,37.4344],[-108.45518,37.43485],[-108.45292,37.43642],[-108.44768,37.43669],[-108.44658,37.43796],[-108.446,37.44099],[-108.44485,37.44232],[-108.44106,37.44196],[-108.43951,37.44283],[-108.43483,37.44135],[-108.42601,37.44178],[-108.41783,37.43905],[-108.41462,37.43929],[-108.41418,37.43754],[-108.4145,37.43609],[-108.40724,37.42851],[-108.40468,37.42762],[-108.40114,37.42783],[-108.40074,37.42603],[-108.39974,37.42525],[-108.39495,37.42481],[-108.39248,37.42353],[-108.39051,37.42037],[-108.39034,37.41913],[-108.389,37.41821],[-108.38905,37.41342],[-108.38954,37.41268],[-108.38826,37.4111],[-108.38858,37.40913],[-108.38785,37.40781],[-108.38782,37.40582],[-108.38646,37.40459],[-108.38733,37.40392],[-108.3873,37.4023],[-108.38895,37.40163],[-108.389,37.40056],[-108.39039,37.40047],[-108.39121,37.3987],[-108.39602,37.39765],[-108.39819,37.39644],[-108.39737,37.39394],[-108.39798,37.3934],[-108.39892,37.3896],[-108.39876,37.38423],[-108.40161,37.38048],[-108.4013,37.37891],[-108.39987,37.37803],[-108.3997,37.37548],[-108.40551,37.37251],[-108.40601,37.371],[-108.40568,37.36874],[-108.40411,37.36765],[-108.40348,37.36614],[-108.40179,37.36547],[-108.40223,37.36203],[-108.40307,37.36113],[-108.40268,37.35918],[-108.40336,37.35854],[-108.40263,37.3578],[-108.40614,37.35269],[-108.40891,37.35096],[-108.40853,37.34791],[-108.41112,37.344],[-108.41041,37.3421],[-108.41743,37.33755],[-108.41711,37.33489],[-108.4191,37.33078],[-108.41921,37.32596],[-108.42016,37.32357],[-108.42028,37.32031],[-108.41926,37.31822],[-108.4198,37.3166],[-108.41888,37.31549],[-108.41953,37.31158],[-108.426,37.30802],[-108.42691,37.30649],[-108.43378,37.30334],[-108.43501,37.30468],[-108.43606,37.30436],[-108.43812,37.30511],[-108.44069,37.3046],[-108.44137,37.30335],[-108.44081,37.29786],[-108.4438,37.29471],[-108.44172,37.2924],[-108.44267,37.28971],[-108.44053,37.28809],[-108.44094,37.28588],[-108.43992,37.2833],[-108.44155,37.28231],[-108.4439,37.28228],[-108.44642,37.28034],[-108.44788,37.28063],[-108.45091,37.27891],[-108.45356,37.28123],[-108.45698,37.28215],[-108.46053,37.2806],[-108.46406,37.28094],[-108.46839,37.28038],[-108.4696,37.27947],[-108.47305,37.27881],[-108.4739,37.27682],[-108.47582,37.27628],[-108.47682,37.27503],[-108.47986,37.27433],[-108.48221,37.27518],[-108.48409,37.27806],[-108.48662,37.2784],[-108.48686,37.27805],[-108.4863,37.2766],[-108.48687,37.27544],[-108.49349,37.27152],[-108.49646,37.27094],[-108.49933,37.27313],[-108.5002,37.27515],[-108.5019,37.27448],[-108.50326,37.27135],[-108.50487,37.27016],[-108.50767,37.2701],[-108.50984,37.27203],[-108.5136,37.26989],[-108.51746,37.2707],[-108.51946,37.26578],[-108.52091,37.26461],[-108.5247,37.26515],[-108.52619,37.26399],[-108.5287,37.26385],[-108.53526,37.26746],[-108.53914,37.26536],[-108.54257,37.26604],[-108.54459,37.26573],[-108.54532,37.26775],[-108.54895,37.26712],[-108.55021,37.26385],[-108.55598,37.26216],[-108.55894,37.2639],[-108.5619,37.26156],[-108.5651,37.26293],[-108.56862,37.26274],[-108.56951,37.26596],[-108.57015,37.26609],[-108.57386,37.26512],[-108.57406,37.26425],[-108.57595,37.26317],[-108.57805,37.2607],[-108.57916,37.25782],[-108.58258,37.25763],[-108.58374,37.25646],[-108.58526,37.2562],[-108.58865,37.25904],[-108.59015,37.25744],[-108.59181,37.25701],[-108.59449,37.25501],[-108.59732,37.25486],[-108.59964,37.2564],[-108.60103,37.25602],[-108.60132,37.25307],[-108.60372,37.25116],[-108.60555,37.25106],[-108.60774,37.25214],[-108.60891,37.24931],[-108.60978,37.24867],[-108.61082,37.24283],[-108.61264,37.24339],[-108.61851,37.24348],[-108.62068,37.24431],[-108.6245,37.24234],[-108.6265,37.24275],[-108.62919,37.24546],[-108.62978,37.2468],[-108.62926,37.24954],[-108.63021,37.25167],[-108.63418,37.25468],[-108.63718,37.25836],[-108.65285,37.26423],[-108.65766,37.2691],[-108.66215,37.26966],[-108.66425,37.2709],[-108.6678,37.27053],[-108.6725,37.27299],[-108.67415,37.27095],[-108.67691,37.26991],[-108.68404,37.26967],[-108.68927,37.26804],[-108.69332,37.26792],[-108.69708,37.267],[-108.69992,37.26565],[-108.71016,37.26577],[-108.71279,37.26653],[-108.73162,37.26795],[-108.74178,37.26695],[-108.74534,37.26755],[-108.74688,37.26932],[-108.74965,37.27014],[-108.75997,37.26882],[-108.76166,37.27129],[-108.76402,37.27207],[-108.77328,37.27947],[-108.77506,37.28356],[-108.77756,37.28444],[-108.77854,37.28396],[-108.77838,37.28282],[-108.77919,37.28044],[-108.78097,37.27805],[-108.78546,37.27538],[-108.78917,37.27457],[-108.79164,37.2723],[-108.79608,37.27197],[-108.79661,37.27064],[-108.79952,37.27159],[-108.80344,37.27106],[-108.80602,37.26848],[-108.80883,37.26759],[-108.81054,37.26831],[-108.81265,37.27077],[-108.81514,37.27019],[-108.81986,37.26388],[-108.81892,37.26239],[-108.81914,37.26051],[-108.81729,37.26048],[-108.81552,37.25622],[-108.81249,37.25568],[-108.81121,37.25445],[-108.8117,37.25281],[-108.80935,37.24986],[-108.81147,37.24844],[-108.81457,37.24848],[-108.81594,37.24736],[-108.81733,37.2442],[-108.8157,37.24162],[-108.81632,37.23929],[-108.81323,37.23747],[-108.81252,37.23476],[-108.80791,37.23278],[-108.80616,37.23291],[-108.80498,37.23202],[-108.80307,37.23192],[-108.80296,37.23102],[-108.80428,37.22972],[-108.80335,37.22912],[-108.80403,37.22757],[-108.80323,37.22651],[-108.80339,37.22504],[-108.80566,37.22118],[-108.80903,37.21975],[-108.8088,37.21469],[-108.80333,37.21168],[-108.8005,37.2092],[-108.79918,37.20689],[-108.80071,37.205],[-108.79934,37.20146],[-108.79815,37.19993],[-108.79618,37.19922],[-108.79401,37.19569],[-108.79543,37.19419],[-108.80351,37.19298],[-108.80515,37.19064],[-108.80688,37.18936],[-108.80812,37.18532],[-108.81028,37.18308],[-108.81195,37.18168],[-108.81476,37.1813],[-108.82259,37.17413],[-108.82254,37.17222],[-108.8251,37.16525],[-108.8268,37.16373],[-108.82648,37.16223],[-108.82912,37.15981],[-108.83104,37.15629],[-108.83081,37.1552],[-108.8351,37.15237],[-108.8341,37.14911],[-108.83435,37.14833],[-108.83605,37.14678],[-108.83818,37.1459],[-108.83374,37.14075],[-108.84035,37.13526],[-108.84122,37.13212],[-108.84368,37.12889],[-108.84759,37.12683],[-108.84903,37.12303],[-108.84851,37.1215],[-108.85145,37.11985],[-108.85174,37.11815],[-108.85076,37.11504],[-108.85094,37.11398],[-108.85027,37.11331],[-108.85271,37.11202],[-108.8547,37.10994],[-108.85847,37.10822],[-108.85988,37.10399],[-108.86251,37.10139],[-108.86188,37.10041],[-108.86365,37.09841],[-108.86804,37.09734],[-108.87822,37.09247],[-108.88879,37.09096],[-108.89042,37.08985],[-108.89521,37.08987],[-108.89692,37.08629],[-108.89962,37.08495],[-108.9021,37.08528],[-108.90407,37.08666],[-108.91015,37.08523],[-108.91586,37.08565],[-108.91627,37.08503],[-108.916,37.08405],[-108.91774,37.0834],[-108.91826,37.07797],[-108.92051,37.07585],[-108.91951,37.07218],[-108.9217,37.06813],[-108.92408,37.066],[-108.92457,37.06464],[-108.92596,37.06395],[-108.92652,37.06027],[-108.92585,37.05798],[-108.9279,37.05504],[-108.92992,37.05396],[-108.9319,37.05106],[-108.93625,37.05265],[-108.93714,37.05202],[-108.93596,37.05045],[-108.93636,37.04952],[-108.9395,37.04929],[-108.94145,37.04825],[-108.94353,37.04834],[-108.94466,37.04712],[-108.94656,37.04691],[-108.94735,37.04591],[-108.94716,37.04464],[-108.94824,37.04318],[-108.94667,37.04115],[-108.94669,37.0377],[-108.94951,37.0354],[-108.95355,37.03614],[-108.95536,37.03515],[-108.95651,37.0332],[-108.96053,37.03091],[-108.96212,37.02923],[-108.96227,37.02785],[-108.96452,37.02651],[-108.96583,37.02355],[-108.96881,37.02168],[-108.97137,37.02091],[-108.97487,37.01837],[-108.97698,37.01805],[-108.97723,37.01557],[-108.97843,37.01335],[-108.98093,37.01195],[-108.98099,37.01102],[-108.97793,37.00659],[-108.97645,37.00663],[-108.97567,37.0048],[-108.97457,37.00439],[-108.97332,37.00278],[-108.97299,37.00095],[-108.97384,36.99957],[-108.97256,36.99561],[-108.97528,36.99265],[-108.97778,36.99212],[-108.97853,36.99138],[-108.97886,36.98727],[-108.97825,36.98491],[-108.98035,36.98362],[-108.98054,36.98288],[-108.9787,36.97791],[-108.97527,36.97357],[-108.97313,36.97203],[-108.97624,36.97221],[-108.97957,36.9735],[-108.98078,36.97496],[-108.98086,36.97609],[-108.98434,36.97997],[-108.98408,36.98189],[-108.99016,36.9863],[-108.99284,36.98689],[-108.99808,36.98578],[-108.99808,36.98191],[-109.00094,36.97921],[-109.0017,36.97755],[-109.00591,36.9766],[-109.0076,36.9733],[-109.00949,36.97177],[-109.01248,36.97068],[-109.01697,36.97068],[-109.0185,36.96877],[-109.02527,36.96616],[-109.0268,36.96432],[-109.03263,36.96257],[-109.03395,36.9602],[-109.03374,36.95862],[-109.03574,36.95621],[-109.0377,36.95562],[-109.04154,36.95568],[-109.04354,36.95406],[-109.04747,36.95345],[-109.04921,36.95251],[-109.05022,36.9504],[-109.04819,36.94901],[-109.04824,36.9475],[-109.04989,36.94505],[-109.05387,36.94317],[-109.05346,36.94127],[-109.05428,36.93988],[-109.06568,36.93973],[-109.07124,36.93742],[-109.07695,36.92958],[-109.0786,36.92839],[-109.07787,36.92469],[-109.08016,36.92328],[-109.07354,36.91915],[-109.07451,36.91339],[-109.0722,36.90847],[-109.07248,36.9043],[-109.07739,36.88714],[-109.07782,36.88148],[-109.07976,36.87612],[-109.08024,36.87283],[-109.08242,36.87076],[-109.08588,36.86955],[-109.09007,36.86562],[-109.0914,36.86387],[-109.09271,36.859],[-109.09638,36.85462],[-109.1027,36.85173],[-109.10418,36.85038],[-109.107,36.84946],[-109.1083,36.84679],[-109.11149,36.84357],[-109.11316,36.83962],[-109.11982,36.8384],[-109.121,36.83744],[-109.12135,36.83353],[-109.12446,36.82959],[-109.12594,36.82882],[-109.12561,36.82725],[-109.12679,36.82534],[-109.12655,36.8232],[-109.12783,36.82028],[-109.12762,36.81904],[-109.12497,36.81788],[-109.12394,36.81611],[-109.12432,36.81157],[-109.12498,36.81007],[-109.12369,36.80812],[-109.12366,36.80585],[-109.13002,36.79799],[-109.13605,36.79547],[-109.14317,36.79618],[-109.14943,36.79783],[-109.15034,36.7973],[-109.15084,36.79586],[-109.15361,36.79605],[-109.15796,36.79276],[-109.16561,36.79045],[-109.16822,36.79259],[-109.17404,36.79358],[-109.17644,36.79111],[-109.179,36.78971],[-109.18073,36.78661],[-109.18418,36.78364],[-109.18523,36.78146],[-109.1855,36.77603],[-109.18782,36.77316],[-109.19308,36.77172],[-109.19477,36.77257],[-109.19838,36.77246],[-109.2002,36.77323],[-109.20212,36.77554],[-109.20514,36.77491],[-109.208,36.77317],[-109.20791,36.76766],[-109.20324,36.76249],[-109.20513,36.75901],[-109.20446,36.75651],[-109.20618,36.75328],[-109.20791,36.75167],[-109.20765,36.74806],[-109.21304,36.74533],[-109.21324,36.74435],[-109.21573,36.74141],[-109.21738,36.74013],[-109.2228,36.73804],[-109.22424,36.73596],[-109.2267,36.73406],[-109.23595,36.72994],[-109.24069,36.72477],[-109.24656,36.72893],[-109.24929,36.72912],[-109.2514,36.72773],[-109.25348,36.72734],[-109.25477,36.72608],[-109.25665,36.7259],[-109.25994,36.72053],[-109.25921,36.71593],[-109.2602,36.71441],[-109.25685,36.71226],[-109.25748,36.71048],[-109.25499,36.70775],[-109.25454,36.70504],[-109.25211,36.70445],[-109.25033,36.70536],[-109.24805,36.70498],[-109.24815,36.70259],[-109.24613,36.70018],[-109.24651,36.69717],[-109.24528,36.69672],[-109.24246,36.69378],[-109.24449,36.69298],[-109.24535,36.69178],[-109.24962,36.68924],[-109.25135,36.68616],[-109.25378,36.68478],[-109.25504,36.68226],[-109.25311,36.67629],[-109.25823,36.6691],[-109.25928,36.66284],[-109.26436,36.65623],[-109.26561,36.65561],[-109.26822,36.65576],[-109.27011,36.65381],[-109.27045,36.65193],[-109.27294,36.65015],[-109.2744,36.64689],[-109.27254,36.64472],[-109.27243,36.64007],[-109.27346,36.63577],[-109.2717,36.63255],[-109.26996,36.63181],[-109.26766,36.63254],[-109.26711,36.63166],[-109.2675,36.62857],[-109.26839,36.62702],[-109.26837,36.62465],[-109.27142,36.61996],[-109.27113,36.61726],[-109.27426,36.61429],[-109.27536,36.61192],[-109.27457,36.6068],[-109.27233,36.60207],[-109.27345,36.60025],[-109.27408,36.59606],[-109.27551,36.59386],[-109.27518,36.59045],[-109.27622,36.58799],[-109.27746,36.58688],[-109.27285,36.58313],[-109.2685,36.58344],[-109.26769,36.58222],[-109.26865,36.58135],[-109.27527,36.58049],[-109.27818,36.57612],[-109.27774,36.57403],[-109.27836,36.57241],[-109.28024,36.57047],[-109.28272,36.56909],[-109.28665,36.56885],[-109.29028,36.56294],[-109.29479,36.5602],[-109.29452,36.55913],[-109.29106,36.55601],[-109.28979,36.55327],[-109.28962,36.55069],[-109.28828,36.55023],[-109.28652,36.54817],[-109.28549,36.54409],[-109.27858,36.54042],[-109.27753,36.53919],[-109.27764,36.53752],[-109.27634,36.5356],[-109.27703,36.53426],[-109.27589,36.53244],[-109.2765,36.53066],[-109.2748,36.52881],[-109.27487,36.52282],[-109.27201,36.52066],[-109.26902,36.51578],[-109.26356,36.5136],[-109.26118,36.51027],[-109.25824,36.51058],[-109.25077,36.50826],[-109.24741,36.50923],[-109.24659,36.50676],[-109.24326,36.50387],[-109.24237,36.50232],[-109.23911,36.50206],[-109.23482,36.49817],[-109.23014,36.49684],[-109.2198,36.4965],[-109.21772,36.49591],[-109.20741,36.50154],[-109.19961,36.50251],[-109.19854,36.49815],[-109.19125,36.49729],[-109.18185,36.49345],[-109.17681,36.49393],[-109.17538,36.49341],[-109.17416,36.49146],[-109.17479,36.49015],[-109.17449,36.48892],[-109.17241,36.48685],[-109.17396,36.48132],[-109.17341,36.47907],[-109.17148,36.47778],[-109.16883,36.47749],[-109.16472,36.4784],[-109.16026,36.48038],[-109.15941,36.4801],[-109.15657,36.47756],[-109.15408,36.47415],[-109.1524,36.47032],[-109.15225,36.46843],[-109.15121,36.46726],[-109.14513,36.466],[-109.14185,36.4679],[-109.13845,36.46806],[-109.13674,36.4676],[-109.13382,36.46489],[-109.12977,36.46498],[-109.12355,36.46585],[-109.11797,36.4689],[-109.11565,36.46794],[-109.11438,36.46473],[-109.11234,36.46297],[-109.11145,36.46097],[-109.10892,36.46157],[-109.10241,36.46033],[-109.09648,36.46113],[-109.09314,36.46012],[-109.09223,36.45729],[-109.08949,36.45492],[-109.0885,36.4524],[-109.08849,36.44957],[-109.08476,36.44231],[-109.08355,36.44158],[-109.07992,36.4413],[-109.07805,36.4388],[-109.08419,36.42916],[-109.08485,36.42637],[-109.08636,36.42363],[-109.08294,36.42135],[-109.07974,36.418],[-109.07676,36.41639],[-109.07605,36.41475],[-109.06902,36.41554],[-109.06595,36.41375],[-109.06001,36.41327],[-109.05904,36.411],[-109.05997,36.40949],[-109.05982,36.40705],[-109.06127,36.40168],[-109.06254,36.39989],[-109.05513,36.39687],[-109.06223,36.39425],[-109.06455,36.38933],[-109.06277,36.38378],[-109.06434,36.37895],[-109.067,36.37764],[-109.06815,36.37619],[-109.07197,36.37366],[-109.07255,36.37209],[-109.07492,36.37015],[-109.07619,36.36757],[-109.076,36.36557],[-109.07428,36.36398],[-109.07397,36.36231],[-109.07257,36.361],[-109.06977,36.36134],[-109.06436,36.35971],[-109.05848,36.35975],[-109.05696,36.35933],[-109.05523,36.35715],[-109.04967,36.35705],[-109.04918,36.356],[-109.05009,36.35323],[-109.04848,36.35062],[-109.04666,36.34888],[-109.04424,36.34922],[-109.04311,36.34849],[-109.04317,36.34303],[-109.04484,36.33949],[-109.0463,36.33814],[-109.04452,36.3372],[-109.04489,36.33586],[-109.04426,36.33118],[-109.0448,36.32817],[-109.04928,36.32418],[-109.05105,36.32347],[-109.05456,36.3198],[-109.06316,36.31801],[-109.06351,36.31493],[-109.0646,36.31175],[-109.05752,36.31365],[-109.05321,36.3129],[-109.05187,36.3119],[-109.04853,36.31322],[-109.04326,36.3115],[-109.03856,36.31114],[-109.03538,36.31293],[-109.03422,36.31616],[-109.02967,36.31753],[-109.02826,36.3193],[-109.02653,36.31925],[-109.02582,36.31824],[-109.02254,36.31837],[-109.02242,36.32022],[-109.02143,36.3217],[-109.01692,36.3244],[-109.0159,36.32575],[-109.01185,36.32698],[-109.01098,36.32847],[-109.009,36.3289],[-109.00591,36.32781],[-109.00303,36.32797],[-109.00191,36.32676],[-109.00118,36.32355],[-108.99952,36.32355],[-108.99756,36.32484],[-108.99443,36.3245],[-108.9889,36.32205],[-108.98669,36.31999],[-108.98326,36.31973],[-108.9792,36.32059],[-108.97839,36.31806],[-108.97906,36.3158],[-108.97891,36.30804],[-108.98039,36.30707],[-108.98232,36.30688],[-108.98356,36.30267],[-108.97916,36.30079],[-108.97432,36.29785],[-108.97156,36.29543],[-108.96919,36.29052],[-108.96834,36.29018],[-108.96519,36.29084],[-108.96304,36.28781],[-108.96001,36.28716],[-108.95636,36.28363],[-108.9562,36.28266],[-108.95683,36.28183],[-108.95655,36.27992],[-108.95553,36.27856],[-108.95584,36.27641],[-108.95811,36.27526],[-108.95806,36.27342],[-108.96052,36.27083],[-108.9613,36.26851],[-108.96043,36.26529],[-108.96305,36.26439],[-108.96429,36.26204],[-108.96847,36.26128],[-108.96822,36.25728],[-108.97175,36.25579],[-108.97192,36.25167],[-108.97153,36.25102],[-108.96962,36.25107],[-108.96326,36.25415],[-108.96106,36.25432],[-108.95937,36.25334],[-108.95755,36.25446],[-108.95286,36.25505],[-108.95204,36.24993],[-108.95312,36.24787],[-108.95152,36.24674],[-108.95151,36.24549],[-108.95,36.24337],[-108.9497,36.24121],[-108.94597,36.24054],[-108.94654,36.23879],[-108.94895,36.23662],[-108.95016,36.23242],[-108.94857,36.23124],[-108.94568,36.23104],[-108.94362,36.23206],[-108.94301,36.2335],[-108.94234,36.23368],[-108.94084,36.23236],[-108.93829,36.23177],[-108.9354,36.2282],[-108.93566,36.22594],[-108.93699,36.2241],[-108.94391,36.22199],[-108.94699,36.2218],[-108.95061,36.21975],[-108.95042,36.21746],[-108.9436,36.21548],[-108.9431,36.21013],[-108.94023,36.2063],[-108.94024,36.20464],[-108.94271,36.20114],[-108.94337,36.19917],[-108.94187,36.19408],[-108.94043,36.19255],[-108.94203,36.1915],[-108.94285,36.18921],[-108.94613,36.18837],[-108.94697,36.18736],[-108.94632,36.18443],[-108.94485,36.18219],[-108.94476,36.18024],[-108.94727,36.17508],[-108.94597,36.17279],[-108.94596,36.16947],[-108.94661,36.16719],[-108.9479,36.16556],[-108.94758,36.16194],[-108.95077,36.1596],[-108.95234,36.15532],[-108.95808,36.15585],[-108.96055,36.15377],[-108.96303,36.14995],[-108.96061,36.14588],[-108.95491,36.14245],[-108.95448,36.14153],[-108.95489,36.13921],[-108.95326,36.13852],[-108.94996,36.13244],[-108.94757,36.13181],[-108.94665,36.13073],[-108.94372,36.12955],[-108.94107,36.1301],[-108.93947,36.12967],[-108.93957,36.12655],[-108.93753,36.12149],[-108.9379,36.11932],[-108.93605,36.1154],[-108.93859,36.11269],[-108.941,36.11209],[-108.94257,36.11085],[-108.94458,36.1065],[-108.94407,36.10244],[-108.9418,36.10019],[-108.93874,36.1004],[-108.93422,36.0987],[-108.93186,36.09906],[-108.92741,36.10158],[-108.9222,36.09968],[-108.91972,36.10222],[-108.91651,36.10313],[-108.91498,36.10558],[-108.911,36.10786],[-108.90981,36.11119],[-108.90462,36.11508],[-108.90163,36.11585],[-108.89838,36.11376],[-108.89563,36.11425],[-108.89418,36.11562],[-108.89097,36.1156],[-108.88958,36.11508],[-108.88834,36.11236],[-108.88612,36.11012],[-108.87622,36.11238],[-108.8662,36.10911],[-108.86501,36.10767],[-108.86568,36.10433],[-108.86947,36.09796],[-108.87063,36.09398],[-108.85971,36.08986],[-108.85326,36.08624],[-108.85608,36.08371],[-108.85943,36.0765],[-108.85564,36.07302],[-108.85496,36.07136],[-108.85786,36.06378],[-108.85758,36.06269],[-108.85937,36.06146],[-108.86171,36.0609],[-108.8652,36.06149],[-108.86459,36.06349],[-108.86488,36.0647],[-108.86561,36.0651],[-108.86888,36.06517],[-108.873,36.06391],[-108.87596,36.0654],[-108.88167,36.06403],[-108.88405,36.06632],[-108.89281,36.06554],[-108.89374,36.06385],[-108.89515,36.06341],[-108.89489,36.06155],[-108.89224,36.05884],[-108.89287,36.05676],[-108.89261,36.05246],[-108.89514,36.0512],[-108.89538,36.04794],[-108.89764,36.04743],[-108.8987,36.04568],[-108.90307,36.04255],[-108.9023,36.039],[-108.90492,36.0316],[-108.90601,36.03086],[-108.9029,36.02926],[-108.90284,36.02746],[-108.90459,36.02535],[-108.9071,36.02418],[-108.9078,36.02327],[-108.90887,36.01887],[-108.91201,36.01913],[-108.91346,36.01717],[-108.91719,36.01492],[-108.91972,36.00685],[-108.92208,36.00585],[-108.92464,36.00276],[-108.92769,36.00231],[-108.93027,36.00437],[-108.9329,36.00287],[-108.93364,35.99933],[-108.93785,36.00081],[-108.93957,36.0001],[-108.94289,35.99643],[-108.94421,35.99326],[-108.9466,35.99045],[-108.94576,35.98876],[-108.94599,35.98711],[-108.9467,35.98664],[-108.95072,35.98627],[-108.95811,35.98366],[-108.95908,35.9851],[-108.9617,35.98575],[-108.96337,35.98454],[-108.96472,35.98458],[-108.9686,35.98277],[-108.96999,35.98154],[-108.97131,35.98169],[-108.97253,35.981],[-108.97522,35.98224],[-108.97627,35.98153],[-108.97766,35.98186],[-108.98035,35.98127],[-108.98146,35.98243],[-108.98077,35.9859],[-108.98741,35.98908],[-108.99268,35.98919],[-108.99689,35.98575],[-108.9985,35.98535],[-109.0078,35.98864],[-109.01314,35.98706],[-109.01706,35.98869],[-109.01973,35.98762],[-109.02305,35.98809],[-109.02627,35.98746],[-109.02618,35.98828],[-109.02282,35.99182],[-109.01825,35.99528],[-109.01945,35.99806],[-109.02066,36.0034],[-109.02481,36.00763],[-109.0306,36.01202],[-109.0344,36.01688],[-109.03473,36.01809],[-109.0367,36.02],[-109.03696,36.02155],[-109.03904,36.02437],[-109.03923,36.0254],[-109.03843,36.02708],[-109.04099,36.02944],[-109.04313,36.0325],[-109.04515,36.03372],[-109.05542,36.03094],[-109.06999,36.02563],[-109.07886,36.01948],[-109.08866,36.01503],[-109.09345,36.01026],[-109.09861,36.00899],[-109.09969,36.00807],[-109.09964,36.00589],[-109.09834,36.00311],[-109.09316,35.99771],[-109.09334,35.99265],[-109.09192,35.98974],[-109.09278,35.98823],[-109.093,35.98513],[-109.09675,35.98337],[-109.09826,35.98043],[-109.0995,35.97948],[-109.10027,35.97724],[-109.10242,35.9744],[-109.10519,35.96701],[-109.11426,35.95948],[-109.11765,35.95811],[-109.12117,35.95174],[-109.12462,35.94812],[-109.12781,35.94592],[-109.12956,35.94589],[-109.13182,35.94698],[-109.13406,35.94668],[-109.14344,35.94196],[-109.14763,35.93875],[-109.15065,35.93758],[-109.15286,35.93843],[-109.16078,35.93885],[-109.16224,35.93627],[-109.16513,35.934],[-109.16572,35.93104],[-109.1701,35.92479],[-109.18453,35.91519],[-109.19226,35.90659],[-109.19728,35.90487],[-109.19917,35.90358],[-109.1999,35.90213],[-109.19916,35.89757],[-109.20015,35.89307],[-109.20356,35.88768],[-109.20417,35.88341],[-109.206,35.88142],[-109.20701,35.88145],[-109.20948,35.88303],[-109.21245,35.8835],[-109.21827,35.88663],[-109.22974,35.88721],[-109.23151,35.8887],[-109.23539,35.88892],[-109.23915,35.89125],[-109.24109,35.89173],[-109.24295,35.89148],[-109.24686,35.88932],[-109.2496,35.88634],[-109.25224,35.88697],[-109.25439,35.88618],[-109.25542,35.88427],[-109.25762,35.88369],[-109.26006,35.8815],[-109.2645,35.89125],[-109.26651,35.89302],[-109.26889,35.8968],[-109.27258,35.89991],[-109.27436,35.89937],[-109.2765,35.89728],[-109.2811,35.89461],[-109.28825,35.89459],[-109.29235,35.89285],[-109.2967,35.89366],[-109.3,35.8935],[-109.30262,35.89315],[-109.3053,35.89184],[-109.31792,35.89322],[-109.32387,35.89695],[-109.32625,35.8962],[-109.33416,35.89721],[-109.34144,35.89663],[-109.34445,35.89496],[-109.34849,35.89442],[-109.35018,35.89344],[-109.35547,35.88834],[-109.35945,35.88203],[-109.36553,35.87892],[-109.36754,35.87695],[-109.37235,35.87537],[-109.37592,35.87296],[-109.38379,35.86921],[-109.38603,35.86611],[-109.39004,35.86335],[-109.39115,35.85975],[-109.39797,35.85816],[-109.40258,35.85455],[-109.40606,35.85268],[-109.40855,35.8495],[-109.40869,35.84535],[-109.41033,35.84301],[-109.4121,35.84174],[-109.41428,35.83692],[-109.41888,35.83431],[-109.42,35.8327],[-109.42287,35.83055],[-109.42573,35.82548],[-109.43018,35.82411],[-109.43084,35.82282],[-109.43769,35.816],[-109.44158,35.81658],[-109.44323,35.81777],[-109.44688,35.81867],[-109.45086,35.82057],[-109.45561,35.82154],[-109.45725,35.82314],[-109.45867,35.82331],[-109.46041,35.82125],[-109.46379,35.82006],[-109.46515,35.81787],[-109.47374,35.81202],[-109.48665,35.81053],[-109.48774,35.80573],[-109.49702,35.79717],[-109.50157,35.79679],[-109.50383,35.79517],[-109.50794,35.79445],[-109.51125,35.79262],[-109.512,35.7929],[-109.51291,35.79474],[-109.51543,35.79477],[-109.51775,35.79562],[-109.52004,35.79975],[-109.52203,35.79978],[-109.52746,35.79793],[-109.52923,35.79876],[-109.53313,35.80192],[-109.53549,35.80543],[-109.53844,35.80791],[-109.53947,35.8114],[-109.54224,35.81429],[-109.54251,35.81861],[-109.54421,35.81943],[-109.54874,35.81968],[-109.55044,35.8185],[-109.55113,35.81463],[-109.55497,35.80626],[-109.56074,35.80116],[-109.56143,35.79429],[-109.56401,35.79103],[-109.56626,35.78945],[-109.56797,35.78668],[-109.57323,35.78484],[-109.57586,35.78311],[-109.57689,35.78051],[-109.57854,35.77925],[-109.5785,35.77817],[-109.57621,35.77691],[-109.5761,35.77508],[-109.57717,35.77226],[-109.57925,35.77],[-109.57983,35.76846],[-109.58352,35.76681],[-109.58861,35.76586],[-109.58945,35.76213],[-109.59293,35.75946],[-109.59619,35.75821],[-109.60119,35.75821],[-109.60556,35.757],[-109.60675,35.75558],[-109.61133,35.75329],[-109.61473,35.75023],[-109.6196,35.74821],[-109.62246,35.74327],[-109.62404,35.7421],[-109.63961,35.74543],[-109.6461,35.74569],[-109.65073,35.74489],[-109.65554,35.74538],[-109.6596,35.74719],[-109.65909,35.74855],[-109.66007,35.74938],[-109.66124,35.75435],[-109.66051,35.75607],[-109.66201,35.75976],[-109.66153,35.7667],[-109.66293,35.76846],[-109.66522,35.76732],[-109.66766,35.76723],[-109.6713,35.7651],[-109.67833,35.76228],[-109.68076,35.75949],[-109.68088,35.75791],[-109.68247,35.75567],[-109.69262,35.74699],[-109.69493,35.7441],[-109.69686,35.73951],[-109.70051,35.73701],[-109.70254,35.73619],[-109.70797,35.73783],[-109.71696,35.73616],[-109.71789,35.73766],[-109.71737,35.74265],[-109.71877,35.74425],[-109.71901,35.74579],[-109.71899,35.75263],[-109.72072,35.75486],[-109.72207,35.75872],[-109.72515,35.75826],[-109.73091,35.75596],[-109.73579,35.7557],[-109.74151,35.75814],[-109.74375,35.75693],[-109.74796,35.75684],[-109.75386,35.7515],[-109.75529,35.75139],[-109.75955,35.7562],[-109.76269,35.75637],[-109.76548,35.75959],[-109.76576,35.762],[-109.76424,35.76561],[-109.76439,35.76717],[-109.77209,35.76561],[-109.77412,35.76598],[-109.77502,35.76723],[-109.77729,35.76747],[-109.77972,35.76922],[-109.78356,35.76991],[-109.78522,35.77161],[-109.78628,35.77155],[-109.78823,35.77022],[-109.78954,35.77067],[-109.79113,35.77462],[-109.79478,35.77687],[-109.79622,35.78012],[-109.78994,35.7858],[-109.78926,35.78756],[-109.79227,35.78837],[-109.7942,35.78657],[-109.79546,35.78644],[-109.79603,35.79166],[-109.80245,35.79562],[-109.8049,35.79816],[-109.80856,35.79747],[-109.81225,35.7945],[-109.81739,35.79445],[-109.82143,35.79269],[-109.82483,35.79356],[-109.83217,35.79857],[-109.83254,35.79964],[-109.8319,35.80186],[-109.83359,35.80465],[-109.83558,35.80621],[-109.839,35.80668],[-109.8435,35.8043],[-109.84525,35.804],[-109.84781,35.80918],[-109.84741,35.81355],[-109.84619,35.81557],[-109.84624,35.81665],[-109.84718,35.8171],[-109.85103,35.81683],[-109.85132,35.82086],[-109.85539,35.82049],[-109.85726,35.82126],[-109.85707,35.82272],[-109.85355,35.82466],[-109.85299,35.82663],[-109.85464,35.829],[-109.85513,35.83209],[-109.85447,35.83683],[-109.85705,35.84396],[-109.85584,35.84654],[-109.85432,35.84792],[-109.85502,35.85078],[-109.85488,35.85357],[-109.85372,35.85555],[-109.85249,35.85618],[-109.84968,35.85601],[-109.8464,35.85375],[-109.84374,35.85329],[-109.84093,35.85447],[-109.83416,35.85545],[-109.83098,35.85704],[-109.83034,35.85893],[-109.83082,35.86041],[-109.83492,35.86595],[-109.83448,35.86847],[-109.8354,35.87115],[-109.83491,35.8726],[-109.83571,35.8737],[-109.83833,35.87485],[-109.83774,35.87901],[-109.83911,35.88261],[-109.85241,35.88638],[-109.85511,35.89005],[-109.85402,35.89507],[-109.85598,35.89912],[-109.85751,35.89967],[-109.85717,35.90107],[-109.85859,35.90253],[-109.85923,35.91171],[-109.8623,35.91691],[-109.86506,35.91942],[-109.86762,35.92612],[-109.86717,35.92941],[-109.86912,35.93113],[-109.86679,35.9334],[-109.86667,35.93499],[-109.86785,35.9383],[-109.86763,35.94118],[-109.86819,35.94342],[-109.87186,35.94803],[-109.87284,35.95033],[-109.87119,35.95358],[-109.87162,35.95603],[-109.87304,35.95919],[-109.87866,35.96665],[-109.88395,35.96975],[-109.8856,35.97408],[-109.88587,35.97749],[-109.8872,35.97863],[-109.88966,35.9851],[-109.89807,35.99222],[-109.89902,35.99416],[-109.89832,35.99513],[-109.89837,35.99656],[-109.9016,35.99869],[-109.90066,36.00425],[-109.90143,36.00723],[-109.90161,36.01328],[-109.90317,36.01547],[-109.90321,36.01685],[-109.90416,36.01844],[-109.9061,36.0203],[-109.90515,36.02576],[-109.90782,36.02923],[-109.91048,36.02893],[-109.91261,36.03131],[-109.917,36.03292],[-109.92113,36.03211],[-109.923,36.03409],[-109.92583,36.03452],[-109.92863,36.03691],[-109.93071,36.03756],[-109.93168,36.03899],[-109.93533,36.03943],[-109.93747,36.04068],[-109.93996,36.04007],[-109.94735,36.04065],[-109.94747,36.04224],[-109.94905,36.04427],[-109.94911,36.04603],[-109.95041,36.04782],[-109.95018,36.04966],[-109.95138,36.05132],[-109.95057,36.05612],[-109.95073,36.06365],[-109.95195,36.06627],[-109.95345,36.06734],[-109.95356,36.06888],[-109.95446,36.07018],[-109.95397,36.07322],[-109.9553,36.07926],[-109.95409,36.08172],[-109.95429,36.08694],[-109.95947,36.09139],[-109.9585,36.0975],[-109.9591,36.09965],[-109.95824,36.10143],[-109.95914,36.10334],[-109.95779,36.10726],[-109.95837,36.10831],[-109.95719,36.10907],[-109.95402,36.1135],[-109.94833,36.11796],[-109.94571,36.11908],[-109.9444,36.12061],[-109.94106,36.12055],[-109.93898,36.12197],[-109.9356,36.12192],[-109.93271,36.1253],[-109.93012,36.12653],[-109.92907,36.12768],[-109.92633,36.13295],[-109.91891,36.13728],[-109.91624,36.14049],[-109.91534,36.14326],[-109.91741,36.14559],[-109.92042,36.14662],[-109.92102,36.14935],[-109.92054,36.15152],[-109.91683,36.1554],[-109.91475,36.15571],[-109.91455,36.15698],[-109.91353,36.15813],[-109.90431,36.16194],[-109.90346,36.16481],[-109.89967,36.16809],[-109.89902,36.16942],[-109.8961,36.17078],[-109.89449,36.17312],[-109.88785,36.17687],[-109.88698,36.18239],[-109.8844,36.18598],[-109.88267,36.18723],[-109.8819,36.18899],[-109.87892,36.1899],[-109.87438,36.18768],[-109.87275,36.18778],[-109.86984,36.19093],[-109.86806,36.19465],[-109.8641,36.19841],[-109.85941,36.19881],[-109.85532,36.20262],[-109.85059,36.20567],[-109.84895,36.20931],[-109.84839,36.21499],[-109.84581,36.21645],[-109.84483,36.21885],[-109.84565,36.22553],[-109.8472,36.22647],[-109.84803,36.22794],[-109.84808,36.23108],[-109.84693,36.234],[-109.84484,36.23548],[-109.8399,36.23586],[-109.83656,36.23724],[-109.83412,36.24326],[-109.82815,36.24636],[-109.82792,36.25044],[-109.82905,36.25328],[-109.82214,36.25872],[-109.82015,36.26178],[-109.81766,36.26185],[-109.81433,36.26369],[-109.81155,36.26425],[-109.81246,36.26689],[-109.81155,36.2692],[-109.81251,36.27494],[-109.81138,36.27751],[-109.81113,36.2799],[-109.80934,36.28217],[-109.81044,36.28662],[-109.80876,36.29326],[-109.81013,36.29777],[-109.80964,36.29878],[-109.8108,36.29958],[-109.8117,36.30333],[-109.81514,36.30911],[-109.81875,36.31123],[-109.81946,36.31322],[-109.82139,36.31496],[-109.82708,36.316],[-109.82786,36.31665],[-109.8265,36.32017],[-109.82664,36.32195],[-109.8248,36.32327],[-109.82549,36.32703],[-109.82822,36.32973],[-109.82768,36.33217],[-109.82918,36.33412],[-109.82837,36.33685],[-109.83011,36.34113],[-109.82901,36.34347],[-109.82884,36.34803],[-109.83109,36.35122],[-109.83342,36.35307],[-109.83315,36.35546],[-109.83419,36.35695],[-109.84155,36.36064],[-109.84231,36.3617],[-109.84127,36.36552],[-109.83848,36.36877],[-109.83876,36.37193],[-109.83585,36.37485],[-109.83687,36.37714],[-109.8379,36.37798],[-109.84215,36.37899],[-109.85148,36.37922],[-109.85921,36.37842],[-109.86046,36.3789],[-109.86322,36.37723],[-109.86691,36.3771],[-109.8711,36.37386],[-109.87773,36.3737],[-109.88005,36.37416],[-109.88175,36.37533],[-109.88316,36.37876],[-109.88366,36.38291],[-109.88464,36.38403],[-109.88691,36.38497],[-109.89198,36.38484],[-109.89509,36.38569],[-109.90122,36.38618],[-109.90468,36.38745],[-109.9064,36.38724],[-109.91013,36.38472],[-109.91651,36.38494],[-109.92167,36.3887],[-109.92365,36.39195],[-109.92851,36.3941],[-109.93111,36.39624],[-109.93079,36.39873],[-109.93155,36.40257],[-109.93319,36.4061],[-109.93111,36.40897],[-109.9286,36.41517],[-109.92863,36.42038],[-109.92932,36.4214],[-109.93103,36.42223],[-109.93575,36.42167],[-109.94082,36.41893],[-109.94462,36.41918],[-109.94782,36.42069],[-109.95061,36.42105],[-109.95316,36.42281],[-109.95669,36.42853],[-109.95716,36.43034],[-109.96411,36.43875],[-109.96473,36.44008],[-109.96442,36.44181],[-109.9651,36.44269],[-109.97115,36.44368],[-109.97673,36.44757],[-109.9801,36.45133],[-109.98304,36.4527],[-109.98617,36.45304],[-109.99037,36.45215],[-109.99293,36.45317],[-109.99786,36.45256],[-110.00778,36.45573],[-110.01003,36.46139],[-110.00772,36.4634],[-110.00744,36.46485],[-110.01044,36.46791],[-110.0144,36.46829],[-110.01453,36.4694],[-110.01564,36.47025],[-110.01881,36.47057],[-110.02008,36.47248],[-110.02205,36.47265],[-110.02778,36.47522],[-110.02951,36.47844],[-110.03238,36.47902],[-110.03599,36.48092],[-110.03815,36.48109],[-110.03893,36.47981],[-110.03796,36.47657],[-110.03852,36.47106],[-110.03726,36.46669],[-110.03797,36.46191],[-110.04061,36.46213],[-110.04365,36.46128],[-110.04724,36.45698],[-110.05036,36.45978],[-110.04948,36.46251],[-110.04979,36.46311],[-110.05935,36.4647],[-110.05979,36.4638],[-110.059,36.46154],[-110.05566,36.45748],[-110.05579,36.45653],[-110.06374,36.45301],[-110.06596,36.45397],[-110.07068,36.4532],[-110.07175,36.45378],[-110.07301,36.45614],[-110.07661,36.45879],[-110.0787,36.45928],[-110.08409,36.46361],[-110.08474,36.46685],[-110.08585,36.46874],[-110.0846,36.47259],[-110.08507,36.47341],[-110.0868,36.47331],[-110.09049,36.47114],[-110.10003,36.46944],[-110.10174,36.46945],[-110.1059,36.47093],[-110.1106,36.46941],[-110.11525,36.47017],[-110.11943,36.46865],[-110.12161,36.46863],[-110.12625,36.47048],[-110.12947,36.47068],[-110.13337,36.47206],[-110.13403,36.4732],[-110.13659,36.47388],[-110.13871,36.47536],[-110.14265,36.47977],[-110.14687,36.48143],[-110.15135,36.4852],[-110.16013,36.48503],[-110.16312,36.48621],[-110.1641,36.48726],[-110.17005,36.48949],[-110.17347,36.49318],[-110.17385,36.49822],[-110.17751,36.49909],[-110.18026,36.50077],[-110.18577,36.5097],[-110.18593,36.51274],[-110.1843,36.51722],[-110.18804,36.51684],[-110.19383,36.51399],[-110.19662,36.51402],[-110.19745,36.51926],[-110.19965,36.52421],[-110.20003,36.52833],[-110.2036,36.52854],[-110.20658,36.52994],[-110.20983,36.53044],[-110.21415,36.52871],[-110.21428,36.53312],[-110.21617,36.53657],[-110.21485,36.53856],[-110.21588,36.54178],[-110.21313,36.54478],[-110.21231,36.5485],[-110.21374,36.55042],[-110.21473,36.5534],[-110.21197,36.55585],[-110.20928,36.56269],[-110.20901,36.56716],[-110.20533,36.56988],[-110.20443,36.57161],[-110.2047,36.57335],[-110.20804,36.5788],[-110.20781,36.58149],[-110.20865,36.58565],[-110.21561,36.58832],[-110.22003,36.58823],[-110.22245,36.58962],[-110.22985,36.59049],[-110.2374,36.59594],[-110.23913,36.60088],[-110.24239,36.60575],[-110.24195,36.61261],[-110.24448,36.61365],[-110.24183,36.61626],[-110.2426,36.61936],[-110.24259,36.62248],[-110.24426,36.62377],[-110.24631,36.6284],[-110.24837,36.6294],[-110.24991,36.63107],[-110.25121,36.63132],[-110.25593,36.63613],[-110.25903,36.64315],[-110.2588,36.64844],[-110.26062,36.65068],[-110.26371,36.65183],[-110.2728,36.65015],[-110.27901,36.65084],[-110.27983,36.6501],[-110.28027,36.64785],[-110.28178,36.64605],[-110.28338,36.64462],[-110.28576,36.64392],[-110.2878,36.64387],[-110.29241,36.64699],[-110.29523,36.64614],[-110.29748,36.64692],[-110.30286,36.64645],[-110.30567,36.64411],[-110.3071,36.64376],[-110.30936,36.64438],[-110.31144,36.64617],[-110.31353,36.64987],[-110.32296,36.65566],[-110.32842,36.66056],[-110.33091,36.66146],[-110.33235,36.65915],[-110.3346,36.65715],[-110.3448,36.65122],[-110.34655,36.65039],[-110.35555,36.64889],[-110.36095,36.64624],[-110.36447,36.64716],[-110.36819,36.64965],[-110.37624,36.6522],[-110.38075,36.64914],[-110.38786,36.64776],[-110.39452,36.64861],[-110.39956,36.65109],[-110.40773,36.64518],[-110.41088,36.64058],[-110.41484,36.63697],[-110.4177,36.636],[-110.41861,36.63451],[-110.42059,36.63457],[-110.4265,36.63127],[-110.4277,36.62871],[-110.42922,36.62759],[-110.43057,36.62698],[-110.43309,36.62699],[-110.43791,36.62412],[-110.44185,36.62046],[-110.44639,36.61872],[-110.44872,36.6156],[-110.45115,36.6142],[-110.4516,36.61221],[-110.45303,36.61041],[-110.4542,36.60607],[-110.45655,36.60199],[-110.45772,36.5947],[-110.46199,36.58506],[-110.46336,36.57991],[-110.46565,36.57632],[-110.46726,36.57042],[-110.46939,36.56661],[-110.47254,36.55809],[-110.4768,36.55284],[-110.48073,36.5505],[-110.48945,36.54834],[-110.49498,36.55192],[-110.49776,36.55473],[-110.50054,36.5549],[-110.50342,36.55394],[-110.5037,36.55498],[-110.50256,36.55864],[-110.50012,36.56259],[-110.49972,36.5646],[-110.49574,36.57268],[-110.49269,36.57709],[-110.49137,36.58198],[-110.49207,36.58377],[-110.49365,36.58508],[-110.49385,36.58839],[-110.49628,36.59214],[-110.49686,36.59658],[-110.4991,36.60237],[-110.49902,36.60723],[-110.50138,36.60912],[-110.50322,36.61217],[-110.5036,36.61464],[-110.50724,36.61681],[-110.50982,36.61714],[-110.50862,36.62142],[-110.50976,36.62707],[-110.51087,36.63085],[-110.51293,36.63335],[-110.51284,36.63745],[-110.51371,36.63939],[-110.5137,36.6419],[-110.51601,36.64501],[-110.51531,36.64909],[-110.51612,36.65193],[-110.51476,36.65409],[-110.51418,36.65717],[-110.51734,36.65751],[-110.51856,36.65869],[-110.51992,36.65839],[-110.51824,36.66228],[-110.52093,36.66355],[-110.52353,36.66304],[-110.524,36.66409],[-110.52305,36.66604],[-110.52331,36.66781],[-110.52845,36.67121],[-110.52911,36.67224],[-110.53509,36.67059],[-110.54104,36.67113],[-110.53896,36.6763],[-110.53991,36.67754],[-110.54293,36.67886],[-110.54344,36.6822],[-110.54162,36.68464],[-110.54204,36.68695],[-110.54377,36.68733],[-110.54614,36.68536],[-110.55088,36.68457],[-110.55474,36.68548],[-110.55575,36.68791],[-110.55448,36.69018],[-110.5549,36.69122],[-110.55157,36.69856],[-110.55123,36.70099],[-110.55686,36.70179],[-110.56262,36.70426],[-110.56264,36.70668],[-110.56176,36.70929],[-110.56456,36.71257],[-110.56487,36.71488],[-110.56959,36.71633],[-110.57588,36.71983],[-110.57674,36.72432],[-110.58007,36.72728],[-110.58158,36.72979],[-110.58532,36.73131],[-110.58493,36.7349],[-110.58722,36.74112],[-110.58597,36.74245],[-110.58288,36.74384],[-110.58241,36.74584],[-110.581,36.74653],[-110.57777,36.75024],[-110.5753,36.75131],[-110.57522,36.75387],[-110.57301,36.75721],[-110.57232,36.76332],[-110.56969,36.76511],[-110.56864,36.76741],[-110.56307,36.77034],[-110.56517,36.7723],[-110.5676,36.77286],[-110.57044,36.77457],[-110.57622,36.77899],[-110.57619,36.78158],[-110.57736,36.78413],[-110.57596,36.78712],[-110.57531,36.79265],[-110.57788,36.79448],[-110.57995,36.79505],[-110.58327,36.79386],[-110.58791,36.79326],[-110.59362,36.79339],[-110.59711,36.78885],[-110.60067,36.78727],[-110.6036,36.78511],[-110.60554,36.78171],[-110.60591,36.7779],[-110.60815,36.77768],[-110.6111,36.77459],[-110.61574,36.77513],[-110.62014,36.77406],[-110.62267,36.775],[-110.62617,36.77881],[-110.62816,36.77984],[-110.63878,36.77944],[-110.64111,36.78229],[-110.64169,36.78838],[-110.64365,36.79166],[-110.64476,36.79235],[-110.65017,36.789],[-110.65479,36.7874],[-110.65608,36.78636],[-110.66075,36.78509],[-110.66497,36.77953],[-110.66927,36.77797],[-110.67273,36.77357],[-110.67469,36.77242],[-110.67843,36.77284],[-110.68061,36.77178],[-110.68499,36.77113],[-110.68819,36.77184],[-110.68929,36.77279],[-110.69026,36.77663],[-110.69364,36.77656],[-110.69509,36.77806],[-110.70233,36.77524],[-110.70592,36.7749],[-110.7077,36.77639],[-110.71136,36.77761],[-110.71234,36.78194],[-110.71518,36.78303],[-110.71803,36.78629],[-110.71734,36.78874],[-110.7155,36.79171],[-110.71422,36.79614],[-110.7167,36.8025],[-110.71573,36.80794],[-110.71602,36.80922],[-110.71902,36.81025],[-110.71969,36.81462],[-110.72487,36.81568],[-110.72933,36.81767],[-110.72859,36.8198],[-110.73015,36.82214],[-110.72998,36.8247],[-110.73235,36.82936],[-110.73337,36.83456],[-110.73617,36.83689],[-110.73243,36.84121],[-110.72945,36.84322],[-110.72517,36.84498],[-110.72382,36.84725],[-110.72307,36.85073],[-110.72667,36.85652],[-110.73113,36.85919],[-110.73479,36.86277],[-110.73551,36.86453],[-110.74009,36.86521],[-110.74174,36.86953],[-110.74855,36.87064],[-110.75312,36.8694],[-110.7536,36.87079],[-110.75306,36.87508],[-110.75431,36.87655],[-110.76101,36.87877],[-110.76481,36.88225],[-110.76713,36.88266],[-110.77019,36.88219],[-110.77235,36.88676],[-110.77548,36.88515],[-110.77937,36.8843],[-110.781,36.88056],[-110.78704,36.88035],[-110.7879,36.88325],[-110.79064,36.88448],[-110.79177,36.88417],[-110.79334,36.88495],[-110.79706,36.8853],[-110.79677,36.88774],[-110.80023,36.89086],[-110.79902,36.89256],[-110.79911,36.89385],[-110.80163,36.89543],[-110.8051,36.89552],[-110.80603,36.8969],[-110.81005,36.89651],[-110.81346,36.89782],[-110.81778,36.89597],[-110.8207,36.89569],[-110.82241,36.89334],[-110.82445,36.89288],[-110.83189,36.89421],[-110.83268,36.89506],[-110.83332,36.89773],[-110.83419,36.89822],[-110.83782,36.8967],[-110.84358,36.89671],[-110.84667,36.89938],[-110.84574,36.9048],[-110.84885,36.90649],[-110.84852,36.91053],[-110.84939,36.91258],[-110.85232,36.91492],[-110.8565,36.91623],[-110.86237,36.92405],[-110.86592,36.92386],[-110.86764,36.92467],[-110.86814,36.92556],[-110.86742,36.92895],[-110.86895,36.93098],[-110.87474,36.93072],[-110.877,36.93151],[-110.87757,36.9331],[-110.87473,36.93885],[-110.86894,36.94157],[-110.86459,36.94044],[-110.86335,36.9407],[-110.86312,36.94573],[-110.85917,36.94744],[-110.85763,36.95124],[-110.85851,36.95392],[-110.85339,36.95533],[-110.85215,36.96353],[-110.84955,36.9677],[-110.84975,36.97022],[-110.8491,36.97307],[-110.84487,36.97939],[-110.84134,36.98127],[-110.83613,36.98592],[-110.83536,36.98734],[-110.83541,36.99544],[-110.83737,37.00346],[-110.83862,37.00564],[-110.84016,37.00582],[-110.84179,37.0081],[-110.84429,37.00979],[-110.84586,37.01011],[-110.84909,37.01387],[-110.85414,37.01534],[-110.85363,37.01748],[-110.85415,37.01923],[-110.86033,37.02228],[-110.86362,37.02624],[-110.86916,37.02983],[-110.8703,37.03318],[-110.86933,37.03569],[-110.87105,37.03721],[-110.87364,37.04201],[-110.87323,37.0439],[-110.87024,37.04877],[-110.87189,37.05343],[-110.87219,37.05956],[-110.87412,37.06372],[-110.88024,37.06603],[-110.88115,37.06724],[-110.88132,37.06876],[-110.87962,37.07224],[-110.87958,37.07502],[-110.88074,37.07792],[-110.88318,37.07935],[-110.88521,37.08218],[-110.88817,37.08391],[-110.8925,37.08152],[-110.89363,37.08314],[-110.89266,37.08486],[-110.89338,37.08583],[-110.90046,37.08636],[-110.90135,37.08745],[-110.90147,37.08944],[-110.90299,37.09055]]]}}]}